GPS BIIR-2  (PRN 13)    
1 24876C 97035A   21099.83090278 -.00000000  00000-0  00000-0 0   991
2 24876  55.4654 172.5880 0047135  55.4329 114.0758  2.00563079    16
GPS BIIR-4  (PRN 20)    
1 26360C 00025A   21099.83090278 -.00000000  00000-0  00000-0 0   994
2 26360  53.7267  96.8396 0060164 175.2268 359.6307  2.00794049    17
GPS BIIR-5  (PRN 28)    
1 26407C 00040A   21099.83090278  .00000000  00000-0  00000-0 0   992
2 26407  55.7748 290.4532 0179447 282.8392 189.1255  2.00564677    17
GPS BIIR-8  (PRN 16)    
1 27663C 03005A   21099.83090278  .00000000  00000-0  00000-0 0   991
2 27663  55.8273 290.2491 0121133  37.5026 200.0510  2.00563498    13
GPS BIIR-9  (PRN 21)    
1 27704C 03010A   21099.83090278 -.00000000  00000-0  00000-0 0   994
2 27704  54.8181  40.9108 0244019 293.3638 157.1279  2.00560790    17
GPS BIIR-10 (PRN 22)    
1 28129C 03058A   21099.83090278 -.00000000  00000-0  00000-0 0   998
2 28129  53.5375  99.5015 0072522 301.6655  90.8658  2.00575989    17
GPS BIIR-11 (PRN 19)    
1 28190C 04009A   21099.83090278  .00000000  00000-0  00000-0 0   992
2 28190  56.2061 351.1142 0089553 103.8910 288.9327  2.00569747    11
GPS BIIR-13 (PRN 02)    
1 28474C 04045A   21099.83090278 -.00000000  00000-0  00000-0 0   998
2 28474  55.1544  40.8886 0205312 272.4592  36.2621  2.00566910    19
GPS BIIRM-1 (PRN 17)    
1 28874C 05038A   21099.83090278  .00000000  00000-0  00000-0 0   994
2 28874  56.2928 348.5236 0136214 270.1249 145.0673  2.00575589    14
GPS BIIRM-2 (PRN 31)    
1 29486C 06042A   21099.83090278  .00000000  00000-0  00000-0 0   990
2 29486  54.7840 226.5406 0098884  13.5193 317.4607  2.00553025    14
GPS BIIRM-3 (PRN 12)    
1 29601C 06052A   21099.83090278  .00000000  00000-0  00000-0 0   990
2 29601  55.8218 289.1738 0082597  67.9757 305.9281  2.00553544    16
GPS BIIRM-4 (PRN 15)    
1 32260C 07047A   21099.83090278 -.00000000  00000-0  00000-0 0   991
2 32260  53.2208 158.5107 0128804  55.3158  93.8998  2.00572623    16
GPS BIIRM-5 (PRN 29)    
1 32384C 07062A   21099.83090278  .00000000  00000-0  00000-0 0   994
2 32384  56.3981 349.2321 0015067 125.5949 151.5158  2.00566209    19
GPS BIIRM-6 (PRN 07)    
1 32711C 08012A   21099.83090278  .00000000  00000-0  00000-0 0   994
2 32711  54.5362 225.5749 0149033 226.3890 347.1459  2.00573549    14
GPS BIIRM-8 (PRN 05)    
1 35752C 09043A   21099.83090278 -.00000000  00000-0  00000-0 0   998
2 35752  54.7666 103.0299 0058329  48.9800 181.1073  2.00542733    16
GPS BIIF-1  (PRN 25)    
1 36585C 10022A   21099.83090278  .00000000  00000-0  00000-0 0   991
2 36585  55.0968 284.9976 0097370  54.1947 287.8759  2.00567216    19
GPS BIIF-2  (PRN 01)    
1 37753C 11036A   21099.83090278 -.00000000  00000-0  00000-0 0   996
2 37753  56.3743  45.6342 0105226  46.6573  22.1389  2.00562963    15
GPS BIIF-3  (PRN 24)    
1 38833C 12053A   21099.83090278  .00000000  00000-0  00000-0 0   995
2 38833  53.5836 221.1358 0108810  41.4542  42.6159  2.00555952    18
GPS BIIF-4  (PRN 27)    
1 39166C 13023A   21099.83090278  .00000000  00000-0  00000-0 0   993
2 39166  55.9401 345.0625 0092034  33.3251 146.9169  2.00563513    13
GPS BIIF-5  (PRN 30)    
1 39533C 14008A   21099.83090278  .00000000  00000-0  00000-0 0   995
2 39533  53.6896 226.5995 0051459 201.0618 337.8857  2.00557832    16
GPS BIIF-6  (PRN 06)    
1 39741C 14026A   21099.83090278 -.00000000  00000-0  00000-0 0   997
2 39741  56.3437  45.1609 0024967 299.6720  39.0060  2.00556506    10
GPS BIIF-7  (PRN 09)    
1 40105C 14045A   21099.83090278 -.00000000  00000-0  00000-0 0   994
2 40105  54.6157 164.1142 0016921 107.3546 171.7225  2.00547889    13
GPS BIIF-8  (PRN 03)    
1 40294C 14068A   21099.83090278 -.00000000  00000-0  00000-0 0   998
2 40294  55.5142 105.1047 0032016  44.4465 322.0758  2.00569968    13
GPS BIIF-9  (PRN 26)    
1 40534C 15013A   21099.83090278  .00000000  00000-0  00000-0 0   995
2 40534  54.0044 282.6381 0057381  15.0725 250.1387  2.00550463    11
GPS BIIF-10 (PRN 08)    
1 40730C 15033A   21099.83090278  .00000000  00000-0  00000-0 0   995
2 40730  55.4497 344.0966 0063281 359.1029 150.8767  2.00575027    14
GPS BIIF-11 (PRN 10)    
1 41019C 15062A   21099.83090278 -.00000000  00000-0  00000-0 0   999
2 41019  55.5077 104.9382 0067140 214.6686 262.1066  2.00563784    13
GPS BIIF-12 (PRN 32)    
1 41328C 16007A   21099.83090278 -.00000000  00000-0  00000-0 0   992
2 41328  54.8441 164.6777 0049881 224.7797 186.4563  2.00565431    12
GPS BIII-1  (PRN 04)    
1 43873C 18109A   21099.83090278 -.00000000  00000-0  00000-0 0   994
2 43873  55.0256 167.0052 0012384 200.9566 105.8443  2.00553445    11
GPS BIII-2  (PRN 18)    
1 44506C 19056A   21099.83090278 -.00000000  00000-0  00000-0 0   990
2 44506  55.4400  46.3476 0012492 180.4435  22.9732  2.00564364    18
GPS BIII-3  (PRN 23)    
1 45854C 20041A   21099.83090278 -.00000000  00000-0  00000-0 0   993
2 45854  55.2200 103.6073 0009907 157.8029 347.7854  2.00566416    18
GPS BIII-4  (PRN 14)    
1 46826C 20078A   21099.83090278  .00000000  00000-0  00000-0 0   992
2 46826  54.8763 287.6617 0004464 163.5295 315.1535  2.00555041    13
